ONEWEB-0319             
1 49105U 21075AG  25311.28791447  .00000099  00000+0  22174-3 0  9994
2 49105  87.9130  49.9994 0001291  94.8607 265.2672 13.17650838204389
ONEWEB-0323             
1 49106U 21075AH  25311.26678589 -.00000309  00000+0 -89306-3 0  9990
2 49106  87.8976  34.7302 0001163  85.5046 274.6216 13.12443357205441
ONEWEB-0329             
1 49107U 21075AJ  25311.29634373  .00000073  00000+0  15489-3 0  9994
2 49107  87.9133  50.0011 0001609  96.3886 263.7429 13.17647513204363
ONEWEB-0330             
1 49108U 21075AK  25311.29719939  .00000110  00000+0  24931-3 0  9991
2 49108  87.9129  50.0052 0001764  92.8097 267.3237 13.17649793204405
ONEWEB-0292             
1 49186U 21083A   25311.18404460 -.00000274  00000+0 -78411-3 0  9999
2 49186  87.9009   4.3873 0001683  97.2427 262.8894 13.13469561201783
ONEWEB-0303             
1 49187U 21083B   25311.13763386  .00000080  00000+0  16956-3 0  9999
2 49187  87.9227  19.5580 0001618  98.2416 261.8900 13.18687119200711
ONEWEB-0306             
1 49188U 21083C   25311.12773723  .00000123  00000+0  27884-3 0  9995
2 49188  87.9226  19.5445 0002005 100.5032 259.6327 13.18687464200758
ONEWEB-0307             
1 49189U 21083D   25311.17811661 -.00000283  00000+0 -80854-3 0  9990
2 49189  87.9008   4.3817 0001855  99.4034 260.7305 13.13470871201782
ONEWEB-0320             
1 49190U 21083E   25311.13514687  .00000148  00000+0  34193-3 0  9999
2 49190  87.9229  19.5727 0001858 100.4191 259.7151 13.18607465200712
ONEWEB-0321             
1 49191U 21083F   25311.08202715 -.00000013  00000+0 -64057-4 0  9996
2 49191  87.9193 318.7294 0002199  93.8007 266.3378 13.20772124207514
ONEWEB-0322             
1 49192U 21083G   25311.17387739 -.00000181  00000+0 -52952-3 0  9993
2 49192  87.9015   4.3834 0002278 105.9808 254.1572 13.13468468201776
ONEWEB-0324             
1 49193U 21083H   25311.19701723  .00000048  00000+0  89437-4 0  9998
2 49193  87.9225  19.5380 0001856  94.9629 265.1715 13.18687427200743
ONEWEB-0325             
1 49194U 21083J   25311.20030121  .00000050  00000+0  95040-4 0  9998
2 49194  87.9225  19.5557 0001862 101.6031 258.5311 13.18687938200756
ONEWEB-0326             
1 49195U 21083K   25311.13941585  .00000112  00000+0  25011-3 0  9995
2 49195  87.9224  19.5552 0001475 101.8288 258.3009 13.18686961200732
ONEWEB-0327             
1 49196U 21083L   25311.13914552  .00000198  00000+0  47028-3 0  9996
2 49196  87.9218  19.5780 0001449 107.1623 252.9668 13.18687752200754
ONEWEB-0328             
1 49197U 21083M   25311.16373246  .00000071  00000+0  15925-3 0  9990
2 49197  87.9032   4.3286 0001891  94.3591 265.7755 13.13469273201755
ONEWEB-0331             
1 49198U 21083N   25310.44980128  .00000109  00000+0  24304-3 0  9997
2 49198  87.9229  19.6849 0001498  93.3426 266.7878 13.18686879200650
