[{"OBJECT_NAME":"ONEWEB-0319","OBJECT_ID":"2021-075AG","EPOCH":"2025-11-07T06:54:35.810208","MEAN_MOTION":13.17650838,"ECCENTRICITY":0.00012917,"INCLINATION":87.913,"RA_OF_ASC_NODE":49.9994,"ARG_OF_PERICENTER":94.8607,"MEAN_ANOMALY":265.2672,"EPHEMERIS_TYPE":0,"CLASSIFICATION_TYPE":"U","NORAD_CAT_ID":49105,"ELEMENT_SET_NO":999,"REV_AT_EPOCH":20438,"BSTAR":0.00022173993,"MEAN_MOTION_DOT":9.9e-7,"MEAN_MOTION_DDOT":0},{"OBJECT_NAME":"ONEWEB-0323","OBJECT_ID":"2021-075AH","EPOCH":"2025-11-07T06:24:10.300896","MEAN_MOTION":13.12443357,"ECCENTRICITY":0.00011633,"INCLINATION":87.8976,"RA_OF_ASC_NODE":34.7302,"ARG_OF_PERICENTER":85.5046,"MEAN_ANOMALY":274.6216,"EPHEMERIS_TYPE":0,"CLASSIFICATION_TYPE":"U","NORAD_CAT_ID":49106,"ELEMENT_SET_NO":999,"REV_AT_EPOCH":20544,"BSTAR":-0.00089305622,"MEAN_MOTION_DOT":-3.09e-6,"MEAN_MOTION_DDOT":0},{"OBJECT_NAME":"ONEWEB-0329","OBJECT_ID":"2021-075AJ","EPOCH":"2025-11-07T07:06:44.098272","MEAN_MOTION":13.17647513,"ECCENTRICITY":0.00016091,"INCLINATION":87.9133,"RA_OF_ASC_NODE":50.0011,"ARG_OF_PERICENTER":96.3886,"MEAN_ANOMALY":263.7429,"EPHEMERIS_TYPE":0,"CLASSIFICATION_TYPE":"U","NORAD_CAT_ID":49107,"ELEMENT_SET_NO":999,"REV_AT_EPOCH":20436,"BSTAR":0.00015489061,"MEAN_MOTION_DOT":7.3e-7,"MEAN_MOTION_DDOT":0},{"OBJECT_NAME":"ONEWEB-0330","OBJECT_ID":"2021-075AK","EPOCH":"2025-11-07T07:07:58.027296","MEAN_MOTION":13.17649793,"ECCENTRICITY":0.00017645,"INCLINATION":87.9129,"RA_OF_ASC_NODE":50.0052,"ARG_OF_PERICENTER":92.8097,"MEAN_ANOMALY":267.3237,"EPHEMERIS_TYPE":0,"CLASSIFICATION_TYPE":"U","NORAD_CAT_ID":49108,"ELEMENT_SET_NO":999,"REV_AT_EPOCH":20440,"BSTAR":0.00024930979,"MEAN_MOTION_DOT":1.1e-6,"MEAN_MOTION_DDOT":0},{"OBJECT_NAME":"ONEWEB-0292","OBJECT_ID":"2021-083A","EPOCH":"2025-11-07T04:25:01.453440","MEAN_MOTION":13.13469561,"ECCENTRICITY":0.00016837,"INCLINATION":87.9009,"RA_OF_ASC_NODE":4.3873,"ARG_OF_PERICENTER":97.2427,"MEAN_ANOMALY":262.8894,"EPHEMERIS_TYPE":0,"CLASSIFICATION_TYPE":"U","NORAD_CAT_ID":49186,"ELEMENT_SET_NO":999,"REV_AT_EPOCH":20178,"BSTAR":-0.00078410776,"MEAN_MOTION_DOT":-2.74e-6,"MEAN_MOTION_DDOT":0},{"OBJECT_NAME":"ONEWEB-0303","OBJECT_ID":"2021-083B","EPOCH":"2025-11-07T03:18:11.565504","MEAN_MOTION":13.18687119,"ECCENTRICITY":0.00016189,"INCLINATION":87.9227,"RA_OF_ASC_NODE":19.558,"ARG_OF_PERICENTER":98.2416,"MEAN_ANOMALY":261.89,"EPHEMERIS_TYPE":0,"CLASSIFICATION_TYPE":"U","NORAD_CAT_ID":49187,"ELEMENT_SET_NO":999,"REV_AT_EPOCH":20071,"BSTAR":0.00016955793,"MEAN_MOTION_DOT":8.0e-7,"MEAN_MOTION_DDOT":0},{"OBJECT_NAME":"ONEWEB-0306","OBJECT_ID":"2021-083C","EPOCH":"2025-11-07T03:03:56.496672","MEAN_MOTION":13.18687464,"ECCENTRICITY":0.00020053,"INCLINATION":87.9226,"RA_OF_ASC_NODE":19.5445,"ARG_OF_PERICENTER":100.5032,"MEAN_ANOMALY":259.6327,"EPHEMERIS_TYPE":0,"CLASSIFICATION_TYPE":"U","NORAD_CAT_ID":49188,"ELEMENT_SET_NO":999,"REV_AT_EPOCH":20075,"BSTAR":0.00027883725,"MEAN_MOTION_DOT":1.23e-6,"MEAN_MOTION_DDOT":0},{"OBJECT_NAME":"ONEWEB-0307","OBJECT_ID":"2021-083D","EPOCH":"2025-11-07T04:16:29.275104","MEAN_MOTION":13.13470871,"ECCENTRICITY":0.00018555,"INCLINATION":87.9008,"RA_OF_ASC_NODE":4.3817,"ARG_OF_PERICENTER":99.4034,"MEAN_ANOMALY":260.7305,"EPHEMERIS_TYPE":0,"CLASSIFICATION_TYPE":"U","NORAD_CAT_ID":49189,"ELEMENT_SET_NO":999,"REV_AT_EPOCH":20178,"BSTAR":-0.00080854141,"MEAN_MOTION_DOT":-2.83e-6,"MEAN_MOTION_DDOT":0},{"OBJECT_NAME":"ONEWEB-0320","OBJECT_ID":"2021-083E","EPOCH":"2025-11-07T03:14:36.689568","MEAN_MOTION":13.18607465,"ECCENTRICITY":0.00018582,"INCLINATION":87.9229,"RA_OF_ASC_NODE":19.5727,"ARG_OF_PERICENTER":100.4191,"MEAN_ANOMALY":259.7151,"EPHEMERIS_TYPE":0,"CLASSIFICATION_TYPE":"U","NORAD_CAT_ID":49190,"ELEMENT_SET_NO":999,"REV_AT_EPOCH":20071,"BSTAR":0.00034193324,"MEAN_MOTION_DOT":1.48e-6,"MEAN_MOTION_DDOT":0},{"OBJECT_NAME":"ONEWEB-0321","OBJECT_ID":"2021-083F","EPOCH":"2025-11-07T01:58:07.145760","MEAN_MOTION":13.20772124,"ECCENTRICITY":0.00021997,"INCLINATION":87.9193,"RA_OF_ASC_NODE":318.7294,"ARG_OF_PERICENTER":93.8007,"MEAN_ANOMALY":266.3378,"EPHEMERIS_TYPE":0,"CLASSIFICATION_TYPE":"U","NORAD_CAT_ID":49191,"ELEMENT_SET_NO":999,"REV_AT_EPOCH":20751,"BSTAR":-6.4056838e-5,"MEAN_MOTION_DOT":-1.3e-7,"MEAN_MOTION_DDOT":0},{"OBJECT_NAME":"ONEWEB-0322","OBJECT_ID":"2021-083G","EPOCH":"2025-11-07T04:10:23.006496","MEAN_MOTION":13.13468468,"ECCENTRICITY":0.00022787,"INCLINATION":87.9015,"RA_OF_ASC_NODE":4.3834,"ARG_OF_PERICENTER":105.9808,"MEAN_ANOMALY":254.1572,"EPHEMERIS_TYPE":0,"CLASSIFICATION_TYPE":"U","NORAD_CAT_ID":49192,"ELEMENT_SET_NO":999,"REV_AT_EPOCH":20177,"BSTAR":-0.0005295238,"MEAN_MOTION_DOT":-1.81e-6,"MEAN_MOTION_DDOT":0},{"OBJECT_NAME":"ONEWEB-0324","OBJECT_ID":"2021-083H","EPOCH":"2025-11-07T04:43:42.288672","MEAN_MOTION":13.18687427,"ECCENTRICITY":0.00018564,"INCLINATION":87.9225,"RA_OF_ASC_NODE":19.538,"ARG_OF_PERICENTER":94.9629,"MEAN_ANOMALY":265.1715,"EPHEMERIS_TYPE":0,"CLASSIFICATION_TYPE":"U","NORAD_CAT_ID":49193,"ELEMENT_SET_NO":999,"REV_AT_EPOCH":20074,"BSTAR":8.9436711e-5,"MEAN_MOTION_DOT":4.8e-7,"MEAN_MOTION_DDOT":0},{"OBJECT_NAME":"ONEWEB-0325","OBJECT_ID":"2021-083J","EPOCH":"2025-11-07T04:48:26.024544","MEAN_MOTION":13.18687938,"ECCENTRICITY":0.00018622,"INCLINATION":87.9225,"RA_OF_ASC_NODE":19.5557,"ARG_OF_PERICENTER":101.6031,"MEAN_ANOMALY":258.5311,"EPHEMERIS_TYPE":0,"CLASSIFICATION_TYPE":"U","NORAD_CAT_ID":49194,"ELEMENT_SET_NO":999,"REV_AT_EPOCH":20075,"BSTAR":9.5040135e-5,"MEAN_MOTION_DOT":5.0e-7,"MEAN_MOTION_DDOT":0},{"OBJECT_NAME":"ONEWEB-0326","OBJECT_ID":"2021-083K","EPOCH":"2025-11-07T03:20:45.529440","MEAN_MOTION":13.18686961,"ECCENTRICITY":0.00014759,"INCLINATION":87.9224,"RA_OF_ASC_NODE":19.5552,"ARG_OF_PERICENTER":101.8288,"MEAN_ANOMALY":258.3009,"EPHEMERIS_TYPE":0,"CLASSIFICATION_TYPE":"U","NORAD_CAT_ID":49195,"ELEMENT_SET_NO":999,"REV_AT_EPOCH":20073,"BSTAR":0.00025011319,"MEAN_MOTION_DOT":1.12e-6,"MEAN_MOTION_DDOT":0},{"OBJECT_NAME":"ONEWEB-0327","OBJECT_ID":"2021-083L","EPOCH":"2025-11-07T03:20:22.172928","MEAN_MOTION":13.18687752,"ECCENTRICITY":0.00014495,"INCLINATION":87.9218,"RA_OF_ASC_NODE":19.578,"ARG_OF_PERICENTER":107.1623,"MEAN_ANOMALY":252.9668,"EPHEMERIS_TYPE":0,"CLASSIFICATION_TYPE":"U","NORAD_CAT_ID":49196,"ELEMENT_SET_NO":999,"REV_AT_EPOCH":20075,"BSTAR":0.00047027619,"MEAN_MOTION_DOT":1.98e-6,"MEAN_MOTION_DDOT":0},{"OBJECT_NAME":"ONEWEB-0328","OBJECT_ID":"2021-083M","EPOCH":"2025-11-07T03:55:46.484544","MEAN_MOTION":13.13469273,"ECCENTRICITY":0.00018915,"INCLINATION":87.9032,"RA_OF_ASC_NODE":4.3286,"ARG_OF_PERICENTER":94.3591,"MEAN_ANOMALY":265.7755,"EPHEMERIS_TYPE":0,"CLASSIFICATION_TYPE":"U","NORAD_CAT_ID":49197,"ELEMENT_SET_NO":999,"REV_AT_EPOCH":20175,"BSTAR":0.00015925297,"MEAN_MOTION_DOT":7.1e-7,"MEAN_MOTION_DDOT":0},{"OBJECT_NAME":"ONEWEB-0331","OBJECT_ID":"2021-083N","EPOCH":"2025-11-06T10:47:42.830592","MEAN_MOTION":13.18686879,"ECCENTRICITY":0.00014982,"INCLINATION":87.9229,"RA_OF_ASC_NODE":19.6849,"ARG_OF_PERICENTER":93.3426,"MEAN_ANOMALY":266.7878,"EPHEMERIS_TYPE":0,"CLASSIFICATION_TYPE":"U","NORAD_CAT_ID":49198,"ELEMENT_SET_NO":999,"REV_AT_EPOCH":20065,"BSTAR":0.00024304177,"MEAN_MOTION_DOT":1.09e-6,"MEAN_MOTION_DDOT":0}]
